ONEWEB-0564             
1 55801U 23029F   25251.47088561  .00000126  00000+0  27847-3 0  9998
2 55801  87.9278 330.6349 0002309  96.3574 263.7823 13.20769985123960
ONEWEB-0638             
1 55802U 23029G   25251.52890869 -.00000140  00000+0 -41143-3 0  9990
2 55802  87.9097 345.8446 0002094  86.9193 273.2176 13.14503615122391
ONEWEB-0639             
1 55803U 23029H   25251.59997411  .00000664  00000+0  16254-2 0  9992
2 55803  87.9282   0.9758 0000968  94.7900 265.3344 13.19722014121764
ONEWEB-0640             
1 55804U 23029J   25251.53842816  .00000012  00000+0 -21321-5 0  9997
2 55804  87.9089 345.8282 0001819  77.0834 283.0499 13.14503763122413
ONEWEB-0641             
1 55805U 23029K   25251.36777186 -.00000016  00000+0 -72116-4 0  9998
2 55805  87.9289   0.9949 0001574  99.6811 260.4500 13.19727992121742
ONEWEB-0642             
1 55806U 23029L   25251.59049464 -.00000007  00000+0 -50679-4 0  9995
2 55806  87.9279   0.9851 0000926 109.7878 250.3354 13.19724622121764
ONEWEB-0643             
1 55807U 23029M   25251.50828633 -.00000034  00000+0 -12630-3 0  9994
2 55807  87.9095 345.8175 0001285 119.8894 240.2363 13.14504716122382
ONEWEB-0644             
1 55808U 23029N   25251.58576062 -.00000048  00000+0 -15333-3 0  9997
2 55808  87.9282   0.9935 0001300 103.6009 256.5269 13.19724215121760
